{
  "type": "FeatureCollection",
  "features": [
    {
      "type": "Feature",
      "properties": {
        "name": "Strait of Hormuz - Gulf of Oman - Arabian Sea",
        "note": "Approximate trace of the hand-drawn search area. Land inside the polygon is masked out automatically, so it may hug or overlap the coast. Edit freely (lon, lat order)."
      },
      "geometry": {
        "type": "Polygon",
        "coordinates": [
          [
            [55.85, 26.55],
            [55.95, 26.95],
            [56.30, 27.15],
            [56.70, 27.00],
            [56.95, 26.60],
            [57.30, 25.85],
            [58.20, 25.65],
            [59.50, 25.45],
            [61.00, 25.30],
            [62.50, 25.30],
            [64.50, 25.40],
            [66.20, 25.45],
            [67.10, 24.90],
            [67.60, 24.10],
            [68.80, 23.00],
            [70.30, 21.80],
            [71.80, 20.30],
            [72.50, 18.60],
            [73.10, 16.60],
            [73.50, 14.80],
            [73.60, 12.80],
            [73.00, 10.80],
            [72.30, 9.20],
            [70.80, 7.90],
            [68.50, 7.40],
            [65.50, 7.30],
            [62.50, 7.50],
            [59.80, 8.10],
            [57.60, 9.40],
            [56.20, 11.20],
            [55.60, 13.20],
            [55.70, 15.10],
            [56.40, 16.60],
            [57.40, 17.60],
            [58.40, 18.40],
            [59.10, 19.60],
            [59.30, 20.80],
            [59.90, 22.00],
            [59.90, 22.70],
            [59.10, 23.40],
            [58.30, 23.80],
            [57.40, 24.10],
            [56.80, 24.60],
            [56.50, 25.30],
            [56.45, 25.90],
            [56.40, 26.40],
            [56.20, 26.55],
            [55.85, 26.55]
          ]
        ]
      }
    }
  ]
}
