{
 "type": "FeatureCollection",
 "features": [
  {
   "type": "Feature",
   "properties": {
    "id": "persian-gulf",
    "name": "Persian Gulf & Strait of Hormuz",
    "group": "Middle East"
   },
   "geometry": {
    "type": "Polygon",
    "coordinates": [
     [
      [
       47.8,
       30.3
      ],
      [
       50.2,
       30.3
      ],
      [
       51.8,
       28.4
      ],
      [
       54.5,
       27.1
      ],
      [
       56.4,
       27.3
      ],
      [
       57.0,
       26.6
      ],
      [
       56.6,
       25.8
      ],
      [
       55.6,
       25.0
      ],
      [
       54.0,
       24.0
      ],
      [
       52.0,
       23.8
      ],
      [
       51.0,
       24.3
      ],
      [
       50.4,
       25.0
      ],
      [
       49.4,
       25.8
      ],
      [
       48.5,
       27.5
      ],
      [
       47.8,
       29.0
      ],
      [
       47.8,
       30.3
      ]
     ]
    ]
   }
  },
  {
   "type": "Feature",
   "properties": {
    "id": "gulf-of-oman",
    "name": "Gulf of Oman & Makran coast",
    "group": "Middle East"
   },
   "geometry": {
    "type": "Polygon",
    "coordinates": [
     [
      [
       56.2,
       26.6
      ],
      [
       57.5,
       25.9
      ],
      [
       60.5,
       25.5
      ],
      [
       63.0,
       25.4
      ],
      [
       65.5,
       25.5
      ],
      [
       67.2,
       25.2
      ],
      [
       67.4,
       24.3
      ],
      [
       66.5,
       23.2
      ],
      [
       64.8,
       21.7
      ],
      [
       62.8,
       20.4
      ],
      [
       61.2,
       19.3
      ],
      [
       60.2,
       19.4
      ],
      [
       59.8,
       20.6
      ],
      [
       59.9,
       22.2
      ],
      [
       59.0,
       23.1
      ],
      [
       58.4,
       23.4
      ],
      [
       57.4,
       23.7
      ],
      [
       56.6,
       24.2
      ],
      [
       56.25,
       24.9
      ],
      [
       56.2,
       25.6
      ],
      [
       56.2,
       26.6
      ]
     ]
    ]
   }
  },
  {
   "type": "Feature",
   "properties": {
    "id": "red-sea-south",
    "name": "Southern Red Sea & Bab-el-Mandeb",
    "group": "Middle East"
   },
   "geometry": {
    "type": "Polygon",
    "coordinates": [
     [
      [
       38.6,
       16.3
      ],
      [
       41.6,
       17.9
      ],
      [
       43.5,
       14.8
      ],
      [
       45.6,
       12.6
      ],
      [
       45.3,
       11.4
      ],
      [
       43.2,
       11.2
      ],
      [
       42.4,
       12.6
      ],
      [
       40.6,
       14.6
      ],
      [
       38.6,
       16.3
      ]
     ]
    ]
   }
  },
  {
   "type": "Feature",
   "properties": {
    "id": "dover-strait",
    "name": "Dover Strait & Thames",
    "group": "Europe"
   },
   "geometry": {
    "type": "Polygon",
    "coordinates": [
     [
      [
       -0.3,
       51.6
      ],
      [
       0.8,
       51.9
      ],
      [
       2.2,
       52.2
      ],
      [
       3.6,
       51.9
      ],
      [
       3.4,
       51.3
      ],
      [
       2.3,
       51.0
      ],
      [
       1.6,
       50.7
      ],
      [
       0.4,
       50.6
      ],
      [
       -0.4,
       50.9
      ],
      [
       -0.5,
       51.3
      ],
      [
       -0.3,
       51.6
      ]
     ]
    ]
   }
  },
  {
   "type": "Feature",
   "properties": {
    "id": "baltic",
    "name": "Baltic: Danish straits to St Petersburg",
    "group": "Europe"
   },
   "geometry": {
    "type": "Polygon",
    "coordinates": [
     [
      [
       8.0,
       54.7
      ],
      [
       7.9,
       56.5
      ],
      [
       8.6,
       57.6
      ],
      [
       10.6,
       58.0
      ],
      [
       11.7,
       57.9
      ],
      [
       12.3,
       56.9
      ],
      [
       12.9,
       55.9
      ],
      [
       14.5,
       55.6
      ],
      [
       16.0,
       55.9
      ],
      [
       17.2,
       57.3
      ],
      [
       18.8,
       58.6
      ],
      [
       19.8,
       59.7
      ],
      [
       22.5,
       60.2
      ],
      [
       25.0,
       60.4
      ],
      [
       28.0,
       60.6
      ],
      [
       30.5,
       60.1
      ],
      [
       30.4,
       59.7
      ],
      [
       28.0,
       59.4
      ],
      [
       25.5,
       59.4
      ],
      [
       23.3,
       58.9
      ],
      [
       22.0,
       57.6
      ],
      [
       21.0,
       56.3
      ],
      [
       20.9,
       55.3
      ],
      [
       19.5,
       54.4
      ],
      [
       17.0,
       54.6
      ],
      [
       14.2,
       53.9
      ],
      [
       11.0,
       53.9
      ],
      [
       9.8,
       54.2
      ],
      [
       8.0,
       54.7
      ]
     ]
    ]
   }
  },
  {
   "type": "Feature",
   "properties": {
    "id": "black-sea-north",
    "name": "Black Sea north: Crimea, Kerch & Azov",
    "group": "Europe"
   },
   "geometry": {
    "type": "Polygon",
    "coordinates": [
     [
      [
       29.8,
       46.4
      ],
      [
       31.5,
       46.9
      ],
      [
       33.8,
       46.4
      ],
      [
       35.5,
       47.2
      ],
      [
       37.5,
       47.3
      ],
      [
       39.4,
       47.4
      ],
      [
       39.2,
       46.8
      ],
      [
       37.5,
       45.8
      ],
      [
       37.8,
       44.6
      ],
      [
       38.5,
       44.0
      ],
      [
       37.0,
       43.4
      ],
      [
       34.5,
       43.0
      ],
      [
       31.5,
       43.3
      ],
      [
       29.9,
       44.3
      ],
      [
       29.6,
       45.5
      ],
      [
       29.8,
       46.4
      ]
     ]
    ]
   }
  },
  {
   "type": "Feature",
   "properties": {
    "id": "east-china-sea",
    "name": "Yellow Sea, East China Sea & Taiwan",
    "group": "East Asia"
   },
   "geometry": {
    "type": "Polygon",
    "coordinates": [
     [
      [
       119.077,
       40.162
      ],
      [
       120.775,
       40.274
      ],
      [
       122.827,
       39.763
      ],
      [
       125.362,
       38.743
      ],
      [
       127.295,
       37.354
      ],
      [
       128.93,
       35.757
      ],
      [
       130.947,
       32.141
      ],
      [
       131.855,
       29.899
      ],
      [
       132.464,
       27.404
      ],
      [
       132.565,
       24.837
      ],
      [
       132.041,
       22.347
      ],
      [
       129.848,
       20.462
      ],
      [
       126.809,
       19.024
      ],
      [
       123.777,
       18.2
      ],
      [
       120.688,
       17.989
      ],
      [
       118.079,
       19.266
      ],
      [
       116.589,
       20.99
      ],
      [
       116.367,
       22.99
      ],
      [
       117.654,
       24.685
      ],
      [
       119.181,
       25.879
      ],
      [
       120.491,
       26.786
      ],
      [
       121.347,
       29.682
      ],
      [
       121.537,
       31.274
      ],
      [
       121.255,
       32.821
      ],
      [
       120.489,
       34.366
      ],
      [
       119.4,
       35.936
      ],
      [
       118.574,
       37.47
      ],
      [
       118.351,
       38.869
      ],
      [
       119.077,
       40.162
      ]
     ]
    ]
   }
  }
 ]
}